GONETS-M 3              
1 38734U 12041B   25069.83186582  .00000025  00000+0  10465-3 0  9991
2 38734  82.4808 355.0127 0017108   0.3118 359.7971 12.44881413573013
GONETS-M 4              
1 38736U 12041D   25069.90022737  .00000024  00000+0  10057-3 0  9998
2 38736  82.4851   0.2568 0025316 348.4893  11.5605 12.43884008565354
GONETS-M 5              
1 39249U 13048A   25070.49420458  .00000067  00000+0  40893-3 0  9992
2 39249  82.4765 271.8027 0016722 140.1017 220.1295 12.42860451521563
GONETS-M 6              
1 39250U 13048B   25070.19526348  .00000052  00000+0  30362-3 0  9990
2 39250  82.4794 272.8579 0018890 174.1260 186.0044 12.43011436521547
GONETS-M 7              
1 39251U 13048C   25070.54824357  .00000048  00000+0  27225-3 0  9990
2 39251  82.4834 274.4521 0017509 141.1322 219.1020 12.42892991521552
GONETS-M 8              
1 40061U 14036A   25069.89985874  .00000025  00000+0  10403-3 0  9992
2 40061  82.5069 235.3356 0030338  80.7032 279.7476 12.42964894484891
GONETS-M 9              
1 40062U 14036B   25070.08944452  .00000028  00000+0  12790-3 0  9997
2 40062  82.5067 235.2815 0023629  86.8730 273.5053 12.42931825484921
GONETS-M 10             
1 40063U 14036C   25069.90909734  .00000030  00000+0  14492-3 0  9995
2 40063  82.5072 235.3884 0022322  74.0277 286.3260 12.42928506484697
GONETS-M 11             
1 40552U 15020A   25069.82493028  .00000029  00000+0  13637-3 0  9995
2 40552  82.4882 319.6921 0015695 296.8606  63.0869 12.42889334451178
GONETS-M 12             
1 40553U 15020B   25070.11886680  .00000047  00000+0  26638-3 0  9995
2 40553  82.4918 320.4995 0014147 280.5432  79.4054 12.42898620451241
GONETS-M 13             
1 40554U 15020C   25069.93228920  .00000046  00000+0  26156-3 0  9995
2 40554  82.4877 319.3811 0012520 265.2161  94.7489 12.42889029451157
GONETS-M 14             
1 44905U 19096A   25070.51193577  .00000021  00000+0  75610-4 0  9994
2 44905  82.5287  11.4597 0014854  81.8279 278.4485 12.42888580236229
GONETS-M 15             
1 44906U 19096B   25070.21537742  .00000032  00000+0  15854-3 0  9993
2 44906  82.5306  12.0239 0016567 103.2421 257.0508 12.42891475236162
GONETS-M 16             
1 44907U 19096C   25069.83847478  .00000019  00000+0  65549-4 0  9992
2 44907  82.5252  11.4166 0011804 141.8071 218.3847 12.42892263236075
GONETS-M 17             
1 46486U 20068A   25070.50787971  .00000052  00000+0  30610-3 0  9991
2 46486  82.4926 275.3134 0022625 326.1098  33.8535 12.42889635201875
GONETS-M 18             
1 46487U 20068B   25070.55503146  .00000067  00000+0  41232-3 0  9995
2 46487  82.4880 274.5814 0019774 322.9206  37.0506 12.42879198201874
GONETS-M 19             
1 46488U 20068C   25069.88287253  .00000069  00000+0  42727-3 0  9990
2 46488  82.4904 275.3490 0013769 340.5410  19.5143 12.42904152201693
GONETS-M 20             
1 47227U 20091A   25070.46624330  .00000041  00000+0  22148-3 0  9990
2 47227  82.5014 230.0241 0021420 111.4450 248.8917 12.42892859193722
GONETS-M 21             
1 47228U 20091B   25070.51979195  .00000042  00000+0  23251-3 0  9996
2 47228  82.4940 228.9849 0015356 124.0818 236.1721 12.42863502193725
GONETS-M 22             
1 47229U 20091C   25070.49233186  .00000041  00000+0  22608-3 0  9991
2 47229  82.4995 229.6814 0022421 105.3067 255.0493 12.42901142193713
GONETS-M 23             
1 54150U 22139A   25070.56074351  .00000055  00000+0  32780-3 0  9999
2 54150  82.5008 275.7564 0021537 149.4463 210.7876 12.42886581108178
GONETS-M 24             
1 54151U 22139B   25070.53430317  .00000052  00000+0  30014-3 0  9990
2 54151  82.4926 275.1485 0016495 159.5529 200.6214 12.42889363108170
GONETS-M 25             
1 54152U 22139C   25070.52050051  .00000037  00000+0  19706-3 0  9991
2 54152  82.4991 275.5958 0020296 158.3120 201.8824 12.42884601108170
